[{"OBJECT_NAME":"STARLINK-35224","OBJECT_ID":"2025-218W","EPOCH":"2026-03-09T15:12:31.020768","MEAN_MOTION":15.05674145,"ECCENTRICITY":0.0002074,"INCLINATION":97.6033,"RA_OF_ASC_NODE":292.935,"ARG_OF_PERICENTER":80.2611,"MEAN_ANOMALY":279.885,"EPHEMERIS_TYPE":0,"CLASSIFICATION_TYPE":"U","NORAD_CAT_ID":65811,"ELEMENT_SET_NO":999,"REV_AT_EPOCH":2496,"BSTAR":0.00047554,"MEAN_MOTION_DOT":6.812e-5,"MEAN_MOTION_DDOT":0},{"OBJECT_NAME":"CZ-6A DEB","OBJECT_ID":"2022-151AAA","EPOCH":"2026-03-09T04:57:45.021312","MEAN_MOTION":15.12096834,"ECCENTRICITY":0.00549442,"INCLINATION":98.6194,"RA_OF_ASC_NODE":161.6622,"ARG_OF_PERICENTER":147.3471,"MEAN_ANOMALY":213.1173,"EPHEMERIS_TYPE":0,"CLASSIFICATION_TYPE":"U","NORAD_CAT_ID":55878,"ELEMENT_SET_NO":999,"REV_AT_EPOCH":16515,"BSTAR":0.0054624845,"MEAN_MOTION_DOT":0.00098665,"MEAN_MOTION_DDOT":0}]
